{
    "links": {
        "self": "http://www.neowsapp.com/rest/v1/neo/3580054?api_key=iIulBulltgU6a56xZRHN4H3l9WmuAYTsLGpBGhQ2"
    },
    "id": "3580054",
    "neo_reference_id": "3580054",
    "name": "(2011 SG173)",
    "designation": "2011 SG173",
    "nasa_jpl_url": "http://ssd.jpl.nasa.gov/sbdb.cgi?sstr=3580054",
    "absolute_magnitude_h": 25.0,
    "estimated_diameter": {
        "kilometers": {
            "estimated_diameter_min": 0.02658,
            "estimated_diameter_max": 0.0594346868
        },
        "meters": {
            "estimated_diameter_min": 26.58,
            "estimated_diameter_max": 59.4346868419
        },
        "miles": {
            "estimated_diameter_min": 0.0165160412,
            "estimated_diameter_max": 0.0369309908
        },
        "feet": {
            "estimated_diameter_min": 87.2047272,
            "estimated_diameter_max": 194.9956979785
        }
    },
    "is_potentially_hazardous_asteroid": false,
    "close_approach_data": [
        {
            "close_approach_date": "2011-08-23",
            "close_approach_date_full": "2011-Aug-23 00:17",
            "epoch_date_close_approach": 1314058620000,
            "relative_velocity": {
                "kilometers_per_second": "5.7255248238",
                "kilometers_per_hour": "20611.8893655038",
                "miles_per_hour": "12807.4264782487"
            },
            "miss_distance": {
                "astronomical": "0.0624309821",
                "lunar": "24.2856520369",
                "kilometers": "9339541.944168127",
                "miles": "5803322.2604770726"
            },
            "orbiting_body": "Earth"
        }
    ],
    "orbital_data": {
        "orbit_id": "5",
        "orbit_determination_date": "2017-04-06 08:52:38",
        "first_observation_date": "2011-09-25",
        "last_observation_date": "2011-10-02",
        "data_arc_in_days": 7,
        "observations_used": 14,
        "orbit_uncertainty": "8",
        "minimum_orbit_intersection": ".0609627",
        "jupiter_tisserand_invariant": "3.636",
        "epoch_osculation": "2455830.5",
        "eccentricity": ".4808228747637971",
        "semi_major_axis": "2.052777661796081",
        "inclination": "1.83772387420176",
        "ascending_node_longitude": "87.0658791774183",
        "orbital_period": "1074.264678526348",
        "perihelion_distance": "1.065755205200384",
        "perihelion_argument": "241.5947293965228",
        "aphelion_distance": "3.039800118391779",
        "perihelion_time": "2455796.297379703268",
        "mean_anomaly": "11.46174081020157",
        "mean_motion": ".3351129448785747",
        "equinox": "J2000",
        "orbit_class": {
            "orbit_class_type": "AMO",
            "orbit_class_description": "Near-Earth asteroid orbits similar to that of 1221 Amor",
            "orbit_class_range": "1.017 AU < q (perihelion) < 1.3 AU"
        }
    },
    "is_sentry_object": false
}